{
  "60517": {
    "name": "PlanetScope-60517",
    "line1": "1 60517U 24149BB  26064.80931734  .00018152  00000-0  49491-3 0  9999",
    "line2": "2 60517  97.3751 147.9199 0003272 307.6210  52.4737 15.37512053 86426",
    "meta": {
      "display_name": "PlanetScope-60517",
      "type": "optical",
      "swath_km": 8.0,
      "resolution_m": 4.0,
      "off_nadir_deg": 0,
      "altitude_km": 525.0,
      "priority": 10
    }
  },
  "60539": {
    "name": "ICEYE-60539",
    "line1": "1 60539U 24149BZ  26064.73790935  .00004866  00000-0  40320-3 0  9990",
    "line2": "2 60539  97.6832 143.1057 0002565  63.6329 296.5157 14.99298550 84614",
    "meta": {
      "display_name": "ICEYE-60539",
      "type": "sar",
      "swath_km": 5.0,
      "resolution_m": 1.0,
      "off_nadir_deg": 40,
      "altitude_km": 580.0,
      "priority": 10
    }
  },
  "60546": {
    "name": "ICEYE-60546",
    "line1": "1 60546U 24149CG  26064.71588664  .00004270  00000-0  35532-3 0  9998",
    "line2": "2 60546  97.6873 143.1442 0005778  66.1167 294.0661 14.99193754 84615",
    "meta": {
      "display_name": "ICEYE-60546",
      "type": "sar",
      "swath_km": 5.0,
      "resolution_m": 1.0,
      "off_nadir_deg": 40,
      "altitude_km": 580.0,
      "priority": 10
    }
  },
  "60548": {
    "name": "ICEYE-60548",
    "line1": "1 60548U 24149CJ  26064.71172113  .00006560  00000-0  51709-3 0  9996",
    "line2": "2 60548  97.7038 144.5851 0006167 133.3189 226.8550 15.01083349 84683",
    "meta": {
      "display_name": "ICEYE-60548",
      "type": "sar",
      "swath_km": 5.0,
      "resolution_m": 1.0,
      "off_nadir_deg": 40,
      "altitude_km": 580.0,
      "priority": 10
    }
  },
  "60549": {
    "name": "ICEYE-60549",
    "line1": "1 60549U 24149CK  26064.75016109  .00003518  00000-0  30645-3 0  9999",
    "line2": "2 60549  97.6861 142.9122 0005797  74.1849 286.0012 14.97530983 84599",
    "meta": {
      "display_name": "ICEYE-60549",
      "type": "sar",
      "swath_km": 5.0,
      "resolution_m": 1.0,
      "off_nadir_deg": 40,
      "altitude_km": 580.0,
      "priority": 10
    }
  },
  "62384": {
    "name": "ICEYE-62384",
    "line1": "1 62384U 24247H   26064.74177572  .00006141  00000-0  36649-3 0  9993",
    "line2": "2 62384  44.9978 189.2391 0001941 235.9121 124.1572 15.11956731 66516",
    "meta": {
      "display_name": "ICEYE-62384",
      "type": "sar",
      "swath_km": 5.0,
      "resolution_m": 1.0,
      "off_nadir_deg": 40,
      "altitude_km": 580.0,
      "priority": 10
    }
  },
  "62389": {
    "name": "ICEYE-62389",
    "line1": "1 62389U 24247N   26064.73512856  .00007263  00000-0  42836-3 0  9996",
    "line2": "2 62389  44.9949 189.1096 0001215 273.6947  86.3791 15.12157507 66516",
    "meta": {
      "display_name": "ICEYE-62389",
      "type": "sar",
      "swath_km": 5.0,
      "resolution_m": 1.0,
      "off_nadir_deg": 40,
      "altitude_km": 580.0,
      "priority": 10
    }
  },
  "62698": {
    "name": "ICEYE-62698",
    "line1": "1 62698U 25009CT  26064.84816946  .00003215  00000-0  32385-3 0  9996",
    "line2": "2 62698  97.7375 145.0180 0001355 115.2868 244.8491 14.91850896 61881",
    "meta": {
      "display_name": "ICEYE-62698",
      "type": "sar",
      "swath_km": 5.0,
      "resolution_m": 1.0,
      "off_nadir_deg": 40,
      "altitude_km": 580.0,
      "priority": 10
    }
  },
  "62700": {
    "name": "ICEYE-62700",
    "line1": "1 62700U 25009CV  26064.69190990  .00005145  00000-0  46330-3 0  9996",
    "line2": "2 62700  97.7114 145.7618 0001897  55.9396 304.2005 14.96030093 61938",
    "meta": {
      "display_name": "ICEYE-62700",
      "type": "sar",
      "swath_km": 5.0,
      "resolution_m": 1.0,
      "off_nadir_deg": 40,
      "altitude_km": 580.0,
      "priority": 10
    }
  },
  "62705": {
    "name": "ICEYE-62705",
    "line1": "1 62705U 25009DA  26064.72373100  .00005603  00000-0  44530-3 0  9990",
    "line2": "2 62705  97.8072 150.8019 0000826  39.1131 321.0152 15.00853737 62161",
    "meta": {
      "display_name": "ICEYE-62705",
      "type": "sar",
      "swath_km": 5.0,
      "resolution_m": 1.0,
      "off_nadir_deg": 40,
      "altitude_km": 580.0,
      "priority": 10
    }
  },
  "62707": {
    "name": "ICEYE-62707",
    "line1": "1 62707U 25009DC  26064.72512965  .00004093  00000-0  37608-3 0  9996",
    "line2": "2 62707  97.7115 145.5202 0002639 108.1161 252.0347 14.95351007 84472",
    "meta": {
      "display_name": "ICEYE-62707",
      "type": "sar",
      "swath_km": 5.0,
      "resolution_m": 1.0,
      "off_nadir_deg": 40,
      "altitude_km": 580.0,
      "priority": 10
    }
  },
  "63229": {
    "name": "SpaceEye-T",
    "line1": "1 63229U 25052V   26064.71403148  .00008160  00000-0  36605-3 0  9990",
    "line2": "2 63229  97.4074 318.9229 0005861 137.5195 222.6495 15.21443966 54101",
    "meta": {
      "display_name": "SpaceEye-T",
      "type": "optical",
      "swath_km": 12,
      "resolution_m": 0.25,
      "off_nadir_deg": 45,
      "altitude_km": 510,
      "priority": 1
    }
  },
  "66820": {
    "name": "KOMPSAT-7",
    "line1": "1 66820U 25279A   26064.87228103  .00004623  00000-0  36277-3 0  9999",
    "line2": "2 66820  97.6730  14.5042 0010228 356.2813   3.8334 15.01388128 14129",
    "meta": {
      "display_name": "KOMPSAT-7",
      "type": "optical",
      "swath_km": 15,
      "resolution_m": 0.3,
      "off_nadir_deg": 30,
      "altitude_km": 570,
      "priority": 2
    }
  }
}